ALOS (DAICHI)           
1 28931U 06002A   25351.73419158  .00001110  00000+0  19545-3 0  9994
2 28931  98.1098 303.1864 0001361 113.5739 246.5610 14.69501788 61443
H-2A R/B                
1 28932U 06002B   25362.83791684  .00012577  00000+0  65374-3 0  9995
2 28932  98.2320 138.9053 0054947 121.9962 238.6625 15.14905701 83701
RESURS-DK 1             
1 29228U 06021A   25362.50733574  .00003897  00000+0  23085-3 0  9991
2 29228  69.9342  61.0864 0007011 245.2412 114.8024 15.12254208 76768
CZ-4B R/B               
1 29507U 06046C   25362.67688758  .00006640  00000+0  34370-3 0  9997
2 29507  97.5718  42.7718 0034577 151.4591 208.8545 15.16035218 49280
CZ-2C R/B               
1 31114U 07010B   25362.78187172  .00000201  00000+0  11090-3 0  9993
2 31114  98.3974 114.6254 0059775 139.6449 220.9186 14.20216607969656
COSMO-SKYMED 1          
1 31598U 07023A   25362.84275128  .00004881  00000+0  44160-3 0  9991
2 31598  97.8836 188.3485 0001019  79.0869 281.0466 14.95888153  4313
COSMOS 2428             
1 31792U 07029A   25362.66784916  .00000283  00000+0  17792-3 0  9996
2 31792  70.9371 352.4363 0004580   1.4762 358.6372 14.12897101954066
SL-16 R/B               
1 31793U 07029B   25362.67266404  .00000284  00000+0  17217-3 0  9998
2 31793  70.9769 321.6647 0001917 267.9908 265.3720 14.14821286955327
KORONAS-FOTON           
1 33504U 09003A   25362.01075493  .00010299  00000+0  24421-3 0  9990
2 33504  82.4309 350.2776 0013143  61.1160 299.1403 15.41486416934699
CZ-2C R/B               
1 37731U 11030B   25362.80923646  .00001727  00000+0  22504-3 0  9994
2 37731  97.8435 316.5624 0051731 219.9184 198.7269 14.80952311779602
H-2A R/B                
1 38341U 12025E   25362.77541639  .00004545  00000+0  41836-3 0  9991
2 38341  98.4621 319.2451 0044801 182.5716 177.5278 14.94553120737629
SHIJIAN-16 (SJ-16)      
1 39358U 13057A   25362.89643001  .00006232  00000+0  61452-3 0  9996
2 39358  74.9733 319.0822 0017966 282.7052  77.2128 14.92045998660946
